ONEWEB-0363             
1 49289U 21090L   25178.85011107  .00000032  00000+0  46320-4 0  9993
2 49289  87.9266 345.0156 0001417  95.0269 265.1026 13.20773308184368
ONEWEB-0364             
1 49290U 21090M   25178.43344547 -.00000051  00000+0 -15749-3 0  9999
2 49290  87.9265 345.1287 0001701  96.0148 264.1179 13.20772764184619
ONEWEB-0365             
1 49291U 21090N   25178.51573409 -.00000313  00000+0 -81299-3 0  9994
2 49291  87.9205  15.4524 0001918  90.1516 269.9837 13.19724399179649
ONEWEB-0366             
1 49292U 21090P   25178.80313194  .00000178  00000+0  44578-3 0  9996
2 49292  87.9036   0.2257 0001748  90.1677 269.9653 13.14502100182308
ONEWEB-0367             
1 49293U 21090Q   25178.46975505  .00000025  00000+0  28863-4 0  9990
2 49293  87.9266 345.0865 0002068  93.1800 266.9570 13.20772903183006
ONEWEB-0368             
1 49294U 21090R   25178.44292718 -.00000119  00000+0 -32491-3 0  9994
2 49294  87.9265 345.1252 0001788 120.2448 239.8863 13.20772150184150
ONEWEB-0369             
1 49295U 21090S   25178.28355025  .00000012  00000+0 -30928-5 0  9994
2 49295  87.9212  15.5271 0001852  90.6544 269.4801 13.19723684179602
ONEWEB-0370             
1 49296U 21090T   25178.85800957  .00000039  00000+0  63131-4 0  9996
2 49296  87.9266 345.0147 0002035  85.0691 275.0674 13.20771707184394
